HYPERFIELD-1A           
1 60562U 24149CY  26068.76488211  .00008569  00000+0  30052-3 0  9998
2 60562  97.3842 149.5066 0003865 313.7844  46.3076 15.29681349 86836
STARLINK-32740          
1 62754U 25014V   26068.24284773  .00039875  00000+0  14503-2 0  9991
2 62754  43.0001 156.5188 0001842 269.0252  91.0389 15.27588843 63199
